NORAD_CAT_ID,OBJECT_NAME,OBJECT_TYPE,EPOCH,MEAN_MOTION,ECCENTRICITY,INCLINATION,RA_OF_ASC_NODE,ARG_OF_PERICENTER,MEAN_ANOMALY,BSTAR,MEAN_MOTION_DOT,MEAN_MOTION_DDOT,TLE_LINE0,TLE_LINE1,TLE_LINE2,SEMIMAJOR_AXIS,PERIOD,APOGEE,PERIGEE,DECAYED
53005.0,STARLINK-4288,PAYLOAD,2024-04-21 11:39:01,15.08838008,0.000134,53.2171,299.0982,123.4476,236.6644,-0.00027889,-4.723e-05,0.0,0 STARLINK-4288,1 53005U 22076V   24112.48543588 -.00004723  00000-0 -27889-3 0  9990,2 53005  53.2171 299.0982 0001340 123.4476 236.6644 15.08838008 99109,6917.886,95.438,540.678,538.824,0.0
53005.0,STARLINK-4288,PAYLOAD,2024-04-21 18:00:34,15.08840323,0.0001343,53.2173,297.9095,112.3691,247.7444,-0.0001363,-2.456e-05,0.0,0 STARLINK-4288,1 53005U 22076V   24112.75039620 -.00002456  00000-0 -13630-3 0  9997,2 53005  53.2173 297.9095 0001343 112.3691 247.7444 15.08840323 99140,6917.879,95.438,540.673,538.815,0.0
53005.0,STARLINK-4288,PAYLOAD,2024-04-22 19:26:45,15.08830792,0.0001147,53.2172,293.1529,95.5572,264.5551,-1.2228e-05,-4.82e-06,0.0,0 STARLINK-4288,1 53005U 22076V   24113.81024792 -.00000482  00000-0 -12228-4 0  9999,2 53005  53.2172 293.1529 0001147  95.5572 264.5551 15.08830792 99775,6917.909,95.438,540.567,538.98,0.0
53005.0,STARLINK-4288,PAYLOAD,2024-04-23 11:20:37,15.08828314,0.0001047,53.2168,290.1803,82.0285,278.0826,0.00010384,1.365e-05,0.0,0 STARLINK-4288,1 53005U 22076V   24114.47265562  .00001365  00000-0  10384-3 0  9993,2 53005  53.2168 290.1803 0001047  82.0285 278.0826 15.08828314 99405,6917.916,95.438,540.505,539.057,0.0
53005.0,STARLINK-4288,PAYLOAD,2024-04-23 19:17:32,15.08846612,0.0001144,53.2171,288.6924,81.6808,278.4314,0.00043371,6.623e-05,0.0,0 STARLINK-4288,1 53005U 22076V   24114.80385150  .00006623  00000-0  43371-3 0  9990,2 53005  53.2171 288.6924 0001144  81.6808 278.4314 15.08846612 99451,6917.86,95.437,540.517,538.934,0.0
53005.0,STARLINK-4288,PAYLOAD,2024-04-24 11:11:24,15.08844773,0.0001353,53.2178,285.7261,68.3188,291.7948,0.00029015,4.333e-05,0.0,0 STARLINK-4288,1 53005U 22076V   24115.46625183  .00004333  00000-0  29015-3 0  9991,2 53005  53.2178 285.7261 0001353  68.3188 291.7948 15.08844773100028,6917.866,95.437,540.667,538.795,0.0
53005.0,STARLINK-4288,PAYLOAD,2024-04-24 15:57:33,15.08843872,0.0001352,53.218,284.8314,69.3513,290.7624,0.00025334,3.747e-05,0.0,0 STARLINK-4288,1 53005U 22076V   24115.66497228  .00003747  00000-0  25334-3 0  9998,2 53005  53.2180 284.8314 0001352  69.3513 290.7624 15.08843872 99589,6917.869,95.437,540.669,538.798,0.0
53005.0,STARLINK-4288,PAYLOAD,2024-04-25 11:02:11,15.08839713,0.0001537,53.2175,281.2645,55.2277,304.886,6.1569e-05,6.92e-06,0.0,0 STARLINK-4288,1 53005U 22076V   24116.45985513  .00000692  00000-0  61569-4 0  9992,2 53005  53.2175 281.2645 0001537  55.2277 304.8860 15.08839713100173,6917.881,95.438,540.81,538.683,0.0
53005.0,STARLINK-4288,PAYLOAD,2024-04-25 14:12:57,15.08841217,0.0001215,53.2178,280.6625,98.6017,261.5112,-5.2436e-05,-1.122e-05,0.0,0 STARLINK-4288,1 53005U 22076V   24116.59233235 -.00001122  00000-0 -52436-4 0  9998,2 53005  53.2178 280.6625 0001215  98.6017 261.5112 15.08841217 99722,6917.877,95.437,540.582,538.901,0.0
53005.0,STARLINK-4288,PAYLOAD,2024-04-25 17:23:43,15.08845913,0.0001185,53.2188,280.068,82.7307,277.382,-1.8635e-05,-5.84e-06,0.0,0 STARLINK-4288,1 53005U 22076V   24116.72481333 -.00000584  00000-0 -18635-4 0  9991,2 53005  53.2188 280.0680 0001185  82.7307 277.3820 15.08845913 99740,6917.862,95.437,540.547,538.908,0.0
53005.0,STARLINK-4288,PAYLOAD,2024-04-26 14:03:44,15.08849014,0.0001114,53.219,276.2054,80.8269,279.2849,5.1629e-05,5.34e-06,0.0,0 STARLINK-4288,1 53005U 22076V   24117.58592919  .00000534  00000-0  51629-4 0  9992,2 53005  53.2190 276.2054 0001114  80.8269 279.2849 15.08849014 99875,6917.853,95.437,540.488,538.947,0.0
53005.0,STARLINK-4288,PAYLOAD,2024-04-26 17:14:30,15.08854694,0.0001125,53.2187,275.6105,74.3263,285.7853,0.00020581,2.99e-05,0.0,0 STARLINK-4288,1 53005U 22076V   24117.71840578  .00002990  00000-0  20581-3 0  9994,2 53005  53.2187 275.6105 0001125  74.3263 285.7853 15.08854694100369,6917.835,95.437,540.479,538.922,0.0
53005.0,STARLINK-4288,PAYLOAD,2024-04-27 10:43:45,15.0884151,0.0001362,53.2179,272.3401,59.1573,300.9553,0.00014876,2.08e-05,0.0,0 STARLINK-4288,1 53005U 22076V   24118.44705435  .00002080  00000-0  14876-3 0  9997,2 53005  53.2179 272.3401 0001362  59.1573 300.9553 15.08841510100473,6917.876,95.437,540.683,538.799,0.0
53005.0,STARLINK-4288,PAYLOAD,2024-04-27 13:54:31,15.08840599,0.0001265,53.2192,271.7458,77.553,282.5603,0.00013487,1.859e-05,0.0,0 STARLINK-4288,1 53005U 22076V   24118.57953457  .00001859  00000-0  13487-3 0  9990,2 53005  53.2192 271.7458 0001265  77.5530 282.5603 15.08840599100020,6917.879,95.438,540.619,538.868,0.0
53005.0,STARLINK-4288,PAYLOAD,2024-04-27 17:05:17,15.08849047,0.0001141,53.2183,271.1505,77.047,283.065,0.00023865,3.513e-05,0.0,0 STARLINK-4288,1 53005U 22076V   24118.71201125  .00003513  00000-0  23865-3 0  9994,2 53005  53.2183 271.1505 0001141  77.0470 283.0650 15.08849047100045,6917.853,95.437,540.507,538.928,0.0
53005.0,STARLINK-4288,PAYLOAD,2024-04-28 13:45:19,15.08827941,0.0001333,53.22,267.2836,104.5356,255.5785,-0.00022299,-3.834e-05,0.0,0 STARLINK-4288,1 53005U 22076V   24119.57313977 -.00003834  00000-0 -22299-3 0  9996,2 53005  53.2200 267.2836 0001333 104.5356 255.5785 15.08827941100648,6917.917,95.438,540.704,538.86,0.0
53005.0,STARLINK-4288,PAYLOAD,2024-04-28 16:56:05,15.08831376,0.0001197,53.2184,266.6901,96.3682,263.7447,-9.0243e-05,-1.723e-05,0.0,0 STARLINK-4288,1 53005U 22076V   24119.70561986 -.00001723  00000-0 -90243-4 0  9996,2 53005  53.2184 266.6901 0001197  96.3682 263.7447 15.08831376100196,6917.907,95.438,540.6,538.944,0.0
53005.0,STARLINK-4288,PAYLOAD,2024-04-29 02:28:24,15.08833978,0.0001297,53.2183,264.9057,94.9206,265.1934,2.9818e-05,1.87e-06,0.0,0 STARLINK-4288,1 53005U 22076V   24120.10306065  .00000187  00000-0  29818-4 0  9998,2 53005  53.2183 264.9057 0001297  94.9206 265.1934 15.08833978100721,6917.899,95.438,540.661,538.867,0.0
53005.0,STARLINK-4288,PAYLOAD,2024-04-29 13:36:06,15.08840632,0.0001166,53.2182,262.8245,100.6096,259.5027,0.00017654,2.523e-05,0.0,0 STARLINK-4288,1 53005U 22076V   24120.56674131  .00002523  00000-0  17654-3 0  9990,2 53005  53.2182 262.8245 0001166 100.6096 259.5027 15.08840632100324,6917.878,95.438,540.55,538.937,0.0
53005.0,STARLINK-4288,PAYLOAD,2024-04-29 18:22:15,15.08849751,0.0001207,53.2179,261.932,101.1215,258.9913,0.00066058,0.00010244,0.0,0 STARLINK-4288,1 53005U 22076V   24120.76546116  .00010244  00000-0  66058-3 0  9994,2 53005  53.2179 261.9320 0001207 101.1215 258.9913 15.08849751100350,6917.851,95.437,540.551,538.881,0.0
53005.0,STARLINK-4288,PAYLOAD,2024-04-30 13:26:53,15.08846919,9.4e-05,53.2169,258.3632,98.5123,261.5976,0.00014223,1.977e-05,0.0,0 STARLINK-4288,1 53005U 22076V   24121.56033866  .00001977  00000-0  14223-3 0  9996,2 53005  53.2169 258.3632 0000940  98.5123 261.5976 15.08846919100942,6917.859,95.437,540.375,539.074,0.0
53005.0,STARLINK-4288,PAYLOAD,2024-04-30 15:02:16,15.08850413,0.0001245,53.2171,258.0649,95.8369,264.2765,0.00030313,4.541e-05,0.0,0 STARLINK-4288,1 53005U 22076V   24121.62657850  .00004541  00000-0  30313-3 0  9996,2 53005  53.2171 258.0649 0001245  95.8369 264.2765 15.08850413100480,6917.849,95.437,540.575,538.852,0.0
53005.0,STARLINK-4288,PAYLOAD,2024-04-30 16:37:39,15.08852813,0.0001053,53.2174,257.7692,100.1886,259.9225,0.00036483,5.525e-05,0.0,0 STARLINK-4288,1 53005U 22076V   24121.69281762  .00005525  00000-0  36483-3 0  9995,2 53005  53.2174 257.7692 0001053 100.1886 259.9225 15.08852813100497,6917.841,95.437,540.435,538.978,0.0
53005.0,STARLINK-4288,PAYLOAD,2024-05-01 14:53:03,15.08847574,0.0001287,53.2169,253.6074,76.8983,283.2153,0.00016489,2.338e-05,0.0,0 STARLINK-4288,1 53005U 22076V   24122.62017797  .00002338  00000-0  16489-3 0  9997,2 53005  53.2169 253.6074 0001287  76.8983 283.2153 15.08847574100630,6917.857,95.437,540.613,538.832,0.0
53005.0,STARLINK-4288,PAYLOAD,2024-05-01 18:03:49,15.08844353,0.0001011,53.2174,253.0107,81.5674,278.5433,4.5313e-05,4.34e-06,0.0,0 STARLINK-4288,1 53005U 22076V   24122.75265857  .00000434  00000-0  45313-4 0  9997,2 53005  53.2174 253.0107 0001011  81.5674 278.5433 15.08844353101127,6917.867,95.437,540.431,539.033,0.0
53005.0,STARLINK-4288,PAYLOAD,2024-05-02 13:08:28,15.08836845,0.0002317,53.2184,249.4427,119.7508,240.3715,0.00019859,2.873e-05,0.0,0 STARLINK-4288,1 53005U 22076V   24123.54755399  .00002873  00000-0  19859-3 0  9994,2 53005  53.2184 249.4427 0002317 119.7508 240.3715 15.08836845101242,6917.89,95.438,541.358,538.152,0.0
53005.0,STARLINK-4288,PAYLOAD,2024-05-02 14:43:51,15.08842634,0.0001179,53.2168,249.1445,95.9921,264.1205,0.00039187,5.955e-05,0.0,0 STARLINK-4288,1 53005U 22076V   24123.61379473  .00005955  00000-0  39187-3 0  9997,2 53005  53.2168 249.1445 0001179  95.9921 264.1205 15.08842634100789,6917.872,95.437,540.553,538.922,0.0
53005.0,STARLINK-4288,PAYLOAD,2024-05-03 01:51:33,15.0885648,0.0001457,53.2175,247.0619,96.4965,263.6193,0.00062617,9.696e-05,0.0,0 STARLINK-4288,1 53005U 22076V   24124.07746946  .00009696  00000-0  62617-3 0  9991,2 53005  53.2175 247.0619 0001457  96.4965 263.6193 15.08856480101325,6917.83,95.437,540.703,538.687,0.0
53005.0,STARLINK-4288,PAYLOAD,2024-05-03 12:59:14,15.08881808,0.0001172,53.2164,244.9806,85.1712,274.9414,0.0010916,0.00017147,0.0,0 STARLINK-4288,1 53005U 22076V   24124.54113680  .00017147  00000-0  10916-2 0  9990,2 53005  53.2164 244.9806 0001172  85.1712 274.9414 15.08881808101396,6917.753,95.435,540.428,538.807,0.0
53005.0,STARLINK-4288,PAYLOAD,2024-05-03 14:34:37,15.08890905,0.0001244,53.2156,244.6832,87.8849,272.2285,0.0011531,0.00018137,0.0,0 STARLINK-4288,1 53005U 22076V   24124.60737430  .00018137  00000-0  11531-2 0  9996,2 53005  53.2156 244.6832 0001244  87.8849 272.2285 15.08890905100937,6917.725,95.434,540.45,538.729,0.0
